{
  "links" : {
    "next" : "https://api.nasa.gov/neo/rest/v1/feed?start_date=1996-03-09&end_date=1996-03-09&detailed=true&api_key=t0TVs3DtDT2H8Oy2Zy8m2eVrNsAVKAexjcZXUckd",
    "prev" : "https://api.nasa.gov/neo/rest/v1/feed?start_date=1996-03-07&end_date=1996-03-07&detailed=true&api_key=t0TVs3DtDT2H8Oy2Zy8m2eVrNsAVKAexjcZXUckd",
    "self" : "https://api.nasa.gov/neo/rest/v1/feed?start_date=1996-03-08&end_date=1996-03-08&detailed=true&api_key=t0TVs3DtDT2H8Oy2Zy8m2eVrNsAVKAexjcZXUckd"
  },
  "element_count" : 4,
  "near_earth_objects" : {
    "1996-03-08" : [ {
      "links" : {
        "self" : "https://api.nasa.gov/neo/rest/v1/neo/2162422?api_key=t0TVs3DtDT2H8Oy2Zy8m2eVrNsAVKAexjcZXUckd"
      },
      "neo_reference_id" : "2162422",
      "name" : "162422 (2000 EV70)",
      "nasa_jpl_url" : "http://ssd.jpl.nasa.gov/sbdb.cgi?sstr=2162422",
      "absolute_magnitude_h" : 20.6,
      "estimated_diameter" : {
        "kilometers" : {
          "estimated_diameter_min" : 0.2016299194,
          "estimated_diameter_max" : 0.4508582062
        },
        "meters" : {
          "estimated_diameter_min" : 201.6299194428,
          "estimated_diameter_max" : 450.8582061718
        },
        "miles" : {
          "estimated_diameter_min" : 0.1252869847,
          "estimated_diameter_max" : 0.2801502144
        },
        "feet" : {
          "estimated_diameter_min" : 661.5155049046,
          "estimated_diameter_max" : 1479.1936371367
        }
      },
      "is_potentially_hazardous_asteroid" : true,
      "close_approach_data" : [ {
        "close_approach_date" : "1996-03-08",
        "epoch_date_close_approach" : 826272000000,
        "relative_velocity" : {
          "kilometers_per_second" : "17.0307142526",
          "kilometers_per_hour" : "61310.5713094792",
          "miles_per_hour" : "38096.004711715"
        },
        "miss_distance" : {
          "astronomical" : "0.034714581",
          "lunar" : "13.5039710999",
          "kilometers" : "5193227",
          "miles" : "3226921.75"
        },
        "orbiting_body" : "Earth"
      } ],
      "orbital_data" : {
        "orbit_id" : "65",
        "orbit_determination_date" : "2017-04-06 09:26:30",
        "orbit_uncertainty" : "0",
        "minimum_orbit_intersection" : ".0118739",
        "jupiter_tisserand_invariant" : "5.126",
        "epoch_osculation" : "2458000.5",
        "eccentricity" : ".5311350633464",
        "semi_major_axis" : "1.207352901316726",
        "inclination" : "1.398947913297695",
        "ascending_node_longitude" : "108.9361730794399",
        "orbital_period" : "484.5624672744042",
        "perihelion_distance" : ".566085441594407",
        "perihelion_argument" : "314.4934961838656",
        "aphelion_distance" : "1.848620361039046",
        "perihelion_time" : "2457853.621684368409",
        "mean_anomaly" : "109.1215213691514",
        "mean_motion" : ".7429382676395665",
        "equinox" : "J2000"
      }
    }, {
      "links" : {
        "self" : "https://api.nasa.gov/neo/rest/v1/neo/3147579?api_key=t0TVs3DtDT2H8Oy2Zy8m2eVrNsAVKAexjcZXUckd"
      },
      "neo_reference_id" : "3147579",
      "name" : "(2003 CA4)",
      "nasa_jpl_url" : "http://ssd.jpl.nasa.gov/sbdb.cgi?sstr=3147579",
      "absolute_magnitude_h" : 23.6,
      "estimated_diameter" : {
        "kilometers" : {
          "estimated_diameter_min" : 0.0506471459,
          "estimated_diameter_max" : 0.1132504611
        },
        "meters" : {
          "estimated_diameter_min" : 50.6471458835,
          "estimated_diameter_max" : 113.2504610618
        },
        "miles" : {
          "estimated_diameter_min" : 0.0314706677,
          "estimated_diameter_max" : 0.0703705522
        },
        "feet" : {
          "estimated_diameter_min" : 166.1651821003,
          "estimated_diameter_max" : 371.5566426699
        }
      },
      "is_potentially_hazardous_asteroid" : false,
      "close_approach_data" : [ {
        "close_approach_date" : "1996-03-08",
        "epoch_date_close_approach" : 826272000000,
        "relative_velocity" : {
          "kilometers_per_second" : "13.3716370265",
          "kilometers_per_hour" : "48137.8932954637",
          "miles_per_hour" : "29911.0148646174"
        },
        "miss_distance" : {
          "astronomical" : "0.3287568323",
          "lunar" : "127.8864135742",
          "kilometers" : "49181324",
          "miles" : "30559858"
        },
        "orbiting_body" : "Earth"
      } ],
      "orbital_data" : {
        "orbit_id" : "20",
        "orbit_determination_date" : "2017-04-06 09:14:22",
        "orbit_uncertainty" : "6",
        "minimum_orbit_intersection" : ".0430556",
        "jupiter_tisserand_invariant" : "6.482",
        "epoch_osculation" : "2458000.5",
        "eccentricity" : ".1196890277139197",
        "semi_major_axis" : ".9202834092808599",
        "inclination" : "7.485572153147567",
        "ascending_node_longitude" : "139.8876846382372",
        "orbital_period" : "322.4636874439063",
        "perihelion_distance" : ".8101355828027826",
        "perihelion_argument" : "173.1295258625055",
        "aphelion_distance" : "1.030431235758937",
        "perihelion_time" : "2457992.067065775942",
        "mean_anomaly" : "9.414568023845982",
        "mean_motion" : "1.116404773677419",
        "equinox" : "J2000"
      }
    }, {
      "links" : {
        "self" : "https://api.nasa.gov/neo/rest/v1/neo/3297366?api_key=t0TVs3DtDT2H8Oy2Zy8m2eVrNsAVKAexjcZXUckd"
      },
      "neo_reference_id" : "3297366",
      "name" : "(2005 UJ6)",
      "nasa_jpl_url" : "http://ssd.jpl.nasa.gov/sbdb.cgi?sstr=3297366",
      "absolute_magnitude_h" : 21.5,
      "estimated_diameter" : {
        "kilometers" : {
          "estimated_diameter_min" : 0.1332155667,
          "estimated_diameter_max" : 0.2978790628
        },
        "meters" : {
          "estimated_diameter_min" : 133.2155666981,
          "estimated_diameter_max" : 297.8790627982
        },
        "miles" : {
          "estimated_diameter_min" : 0.0827762899,
          "estimated_diameter_max" : 0.1850934111
        },
        "feet" : {
          "estimated_diameter_min" : 437.0589598459,
          "estimated_diameter_max" : 977.2935443908
        }
      },
      "is_potentially_hazardous_asteroid" : false,
      "close_approach_data" : [ {
        "close_approach_date" : "1996-03-08",
        "epoch_date_close_approach" : 826272000000,
        "relative_velocity" : {
          "kilometers_per_second" : "16.789704277",
          "kilometers_per_hour" : "60442.9353971284",
          "miles_per_hour" : "37556.8894971768"
        },
        "miss_distance" : {
          "astronomical" : "0.4248796381",
          "lunar" : "165.2781829834",
          "kilometers" : "63561092",
          "miles" : "39495032"
        },
        "orbiting_body" : "Earth"
      } ],
      "orbital_data" : {
        "orbit_id" : "16",
        "orbit_determination_date" : "2016-11-24 06:19:05",
        "orbit_uncertainty" : "0",
        "minimum_orbit_intersection" : ".124977",
        "jupiter_tisserand_invariant" : "5.649",
        "epoch_osculation" : "2457800.5",
        "eccentricity" : ".4161895858694952",
        "semi_major_axis" : "1.068545204432379",
        "inclination" : "18.99724711559362",
        "ascending_node_longitude" : "42.39806430815829",
        "orbital_period" : "403.4481944568063",
        "perihelion_distance" : ".6238278183168318",
        "perihelion_argument" : "131.3721612635243",
        "aphelion_distance" : "1.513262590547926",
        "perihelion_time" : "2457818.803681489573",
        "mean_anomaly" : "343.6674809138306",
        "mean_motion" : ".8923078723519782",
        "equinox" : "J2000"
      }
    }, {
      "links" : {
        "self" : "https://api.nasa.gov/neo/rest/v1/neo/2481127?api_key=t0TVs3DtDT2H8Oy2Zy8m2eVrNsAVKAexjcZXUckd"
      },
      "neo_reference_id" : "2481127",
      "name" : "481127 (2005 UJ6)",
      "nasa_jpl_url" : "http://ssd.jpl.nasa.gov/sbdb.cgi?sstr=2481127",
      "absolute_magnitude_h" : 21.5,
      "estimated_diameter" : {
        "kilometers" : {
          "estimated_diameter_min" : 0.1332155667,
          "estimated_diameter_max" : 0.2978790628
        },
        "meters" : {
          "estimated_diameter_min" : 133.2155666981,
          "estimated_diameter_max" : 297.8790627982
        },
        "miles" : {
          "estimated_diameter_min" : 0.0827762899,
          "estimated_diameter_max" : 0.1850934111
        },
        "feet" : {
          "estimated_diameter_min" : 437.0589598459,
          "estimated_diameter_max" : 977.2935443908
        }
      },
      "is_potentially_hazardous_asteroid" : false,
      "close_approach_data" : [ {
        "close_approach_date" : "1996-03-08",
        "epoch_date_close_approach" : 826272000000,
        "relative_velocity" : {
          "kilometers_per_second" : "16.7897024471",
          "kilometers_per_hour" : "60442.9288094354",
          "miles_per_hour" : "37556.8854038406"
        },
        "miss_distance" : {
          "astronomical" : "0.4248794557",
          "lunar" : "165.2781066895",
          "kilometers" : "63561064",
          "miles" : "39495012"
        },
        "orbiting_body" : "Earth"
      } ],
      "orbital_data" : {
        "orbit_id" : "18",
        "orbit_determination_date" : "2017-04-06 09:18:50",
        "orbit_uncertainty" : "1",
        "minimum_orbit_intersection" : ".124955",
        "jupiter_tisserand_invariant" : "5.649",
        "epoch_osculation" : "2458000.5",
        "eccentricity" : ".4161195746148604",
        "semi_major_axis" : "1.068451163273958",
        "inclination" : "18.9976614249665",
        "ascending_node_longitude" : "42.39515630621894",
        "orbital_period" : "403.3949352676462",
        "perihelion_distance" : ".6238477197156461",
        "perihelion_argument" : "131.369164383246",
        "aphelion_distance" : "1.513054606832271",
        "perihelion_time" : "2457818.795911248593",
        "mean_anomaly" : "162.1573952263573",
        "mean_motion" : ".8924256814507243",
        "equinox" : "J2000"
      }
    } ]
  }
}